{
  "norad_id": 58288,
  "name": "ICEYE-X31",
  "history": [
    {
      "epoch": "2026-03-28T21:55:21.495072Z",
      "apogee_km": 472.3702678464306,
      "perigee_km": 469.6879974055728,
      "latitude_deg": 4.4433422436274844e-05,
      "longitude_deg": 8.65886481189183,
      "height_km": 475.18057004041543,
      "semi_major_axis_km": 6849.166132626002,
      "eccentricity": 0.00019581,
      "inclination_deg": 97.3829,
      "raan_deg": 163.8255,
      "arg_perigee_deg": 218.9648,
      "mean_anomaly_deg": 141.1453,
      "mean_motion_rev_day": 15.3160301
    },
    {
      "epoch": "2026-03-29T04:11:40.580736Z",
      "apogee_km": 472.3475619800065,
      "perigee_km": 469.6394157847026,
      "latitude_deg": -1.8508857867438063e-05,
      "longitude_deg": -85.41763120532485,
      "height_km": 475.1644740992611,
      "semi_major_axis_km": 6849.130488882354,
      "eccentricity": 0.0001977,
      "inclination_deg": 97.383,
      "raan_deg": 164.0861,
      "arg_perigee_deg": 218.3231,
      "mean_anomaly_deg": 141.787,
      "mean_motion_rev_day": 15.31614966
    },
    {
      "epoch": "2026-03-30T05:16:54.970752Z",
      "apogee_km": 472.24344472296707,
      "perigee_km": 469.4244082896157,
      "latitude_deg": -3.1069376771211917e-05,
      "longitude_deg": -101.71688736921428,
      "height_km": 475.1049266102772,
      "semi_major_axis_km": 6848.970926506291,
      "eccentricity": 0.0002058,
      "inclination_deg": 97.3828,
      "raan_deg": 165.1271,
      "arg_perigee_deg": 214.4512,
      "mean_anomaly_deg": 145.6596,
      "mean_motion_rev_day": 15.3166849
    },
    {
      "epoch": "2026-03-30T06:50:59.523360Z",
      "apogee_km": 472.2441786282643,
      "perigee_km": 469.407338253719,
      "latitude_deg": -4.376692832229266e-05,
      "longitude_deg": -125.23524750714144,
      "height_km": 475.1080433674707,
      "semi_major_axis_km": 6848.962758440992,
      "eccentricity": 0.0002071,
      "inclination_deg": 97.3828,
      "raan_deg": 165.1921,
      "arg_perigee_deg": 214.169,
      "mean_anomaly_deg": 145.9418,
      "mean_motion_rev_day": 15.3167123
    },
    {
      "epoch": "2026-03-30T14:41:22.072128Z",
      "apogee_km": 472.21798097059036,
      "perigee_km": 469.3286996544257,
      "latitude_deg": -1.1394885910146211e-05,
      "longitude_deg": 117.17413469559335,
      "height_km": 475.09752796217776,
      "semi_major_axis_km": 6848.910340312508,
      "eccentricity": 0.00021093,
      "inclination_deg": 97.3829,
      "raan_deg": 165.5174,
      "arg_perigee_deg": 212.7143,
      "mean_anomaly_deg": 147.3968,
      "mean_motion_rev_day": 15.31688814
    },
    {
      "epoch": "2026-03-30T22:31:44.283072Z",
      "apogee_km": 472.16512881434574,
      "perigee_km": 469.2702549131891,
      "latitude_deg": -3.848833488855613e-05,
      "longitude_deg": -0.414463985251124,
      "height_km": 475.0753653992775,
      "semi_major_axis_km": 6848.854691863768,
      "eccentricity": 0.00021134,
      "inclination_deg": 97.383,
      "raan_deg": 165.8433,
      "arg_perigee_deg": 210.353,
      "mean_anomaly_deg": 149.7589,
      "mean_motion_rev_day": 15.31707482
    },
    {
      "epoch": "2026-03-31T20:28:44.916096Z",
      "apogee_km": 472.11686589719466,
      "perigee_km": 469.0595949543331,
      "latitude_deg": -9.035565653476083e-06,
      "longitude_deg": 30.342534198537464,
      "height_km": 475.0508807807888,
      "semi_major_axis_km": 6848.725230425764,
      "eccentricity": 0.0002232,
      "inclination_deg": 97.3828,
      "raan_deg": 166.7544,
      "arg_perigee_deg": 207.6576,
      "mean_anomaly_deg": 152.4547,
      "mean_motion_rev_day": 15.31750913
    },
    {
      "epoch": "2026-04-01T19:59:47.620320Z",
      "apogee_km": 472.0579766433957,
      "perigee_km": 468.89939508907446,
      "latitude_deg": -4.3135476313484124e-05,
      "longitude_deg": 37.59154619384721,
      "height_km": 475.02486253577666,
      "semi_major_axis_km": 6848.615685866234,
      "eccentricity": 0.0002306,
      "inclination_deg": 97.3823,
      "raan_deg": 167.7305,
      "arg_perigee_deg": 204.4628,
      "mean_anomaly_deg": 155.6504,
      "mean_motion_rev_day": 15.31787664
    },
    {
      "epoch": "2026-04-02T21:04:51.625056Z",
      "apogee_km": 471.8897149538716,
      "perigee_km": 468.702454196311,
      "latitude_deg": -3.424825591659211e-05,
      "longitude_deg": 21.33617788609202,
      "height_km": 474.8924552489331,
      "semi_major_axis_km": 6848.433084575091,
      "eccentricity": 0.0002327,
      "inclination_deg": 97.382,
      "raan_deg": 168.772,
      "arg_perigee_deg": 201.0007,
      "mean_anomaly_deg": 159.1139,
      "mean_motion_rev_day": 15.31848928
    },
    {
      "epoch": "2026-04-02T22:38:55.491648Z",
      "apogee_km": 471.85838174475157,
      "perigee_km": 468.68373370551217,
      "latitude_deg": 3.9545697986932746e-05,
      "longitude_deg": -2.1792271995712453,
      "height_km": 474.86577574548494,
      "semi_major_axis_km": 6848.408057725132,
      "eccentricity": 0.00023178,
      "inclination_deg": 97.382,
      "raan_deg": 168.8371,
      "arg_perigee_deg": 200.5674,
      "mean_anomaly_deg": 159.5475,
      "mean_motion_rev_day": 15.31857325
    },
    {
      "epoch": "2026-04-03T20:35:48.068736Z",
      "apogee_km": 471.7411212476145,
      "perigee_km": 468.4690311835984,
      "latitude_deg": 2.371862331256736e-05,
      "longitude_deg": 28.611433826352883,
      "height_km": 474.768445853085,
      "semi_major_axis_km": 6848.242076215606,
      "eccentricity": 0.0002389,
      "inclination_deg": 97.3818,
      "raan_deg": 169.7482,
      "arg_perigee_deg": 198.1325,
      "mean_anomaly_deg": 161.9832,
      "mean_motion_rev_day": 15.31913017
    },
    {
      "epoch": "2026-04-04T20:06:41.318208Z",
      "apogee_km": 471.65719885861654,
      "perigee_km": 468.2386348681184,
      "latitude_deg": -2.8299058054002297e-05,
      "longitude_deg": 35.9006487484569,
      "height_km": 474.7031215170697,
      "semi_major_axis_km": 6848.084916863367,
      "eccentricity": 0.0002496,
      "inclination_deg": 97.3814,
      "raan_deg": 170.725,
      "arg_perigee_deg": 195.5614,
      "mean_anomaly_deg": 164.5551,
      "mean_motion_rev_day": 15.31965752
    },
    {
      "epoch": "2026-04-05T14:55:22.098720Z",
      "apogee_km": 471.6004617677845,
      "perigee_km": 468.0911445004913,
      "latitude_deg": 1.4283649122675244e-05,
      "longitude_deg": 113.73916940871399,
      "height_km": 474.66380136438426,
      "semi_major_axis_km": 6847.982803134138,
      "eccentricity": 0.00025623,
      "inclination_deg": 97.3812,
      "raan_deg": 171.506,
      "arg_perigee_deg": 193.029,
      "mean_anomaly_deg": 167.0886,
      "mean_motion_rev_day": 15.32000018
    },
    {
      "epoch": "2026-04-05T21:11:35.375712Z",
      "apogee_km": 471.59621056269316,
      "perigee_km": 468.03801360605394,
      "latitude_deg": -8.683795766810299e-06,
      "longitude_deg": 19.687036781619817,
      "height_km": 474.6657126147533,
      "semi_major_axis_km": 6847.954112084373,
      "eccentricity": 0.0002598,
      "inclination_deg": 97.3812,
      "raan_deg": 171.7667,
      "arg_perigee_deg": 192.0159,
      "mean_anomaly_deg": 168.1021,
      "mean_motion_rev_day": 15.32009646
    },
    {
      "epoch": "2026-04-06T06:35:55.019040Z",
      "apogee_km": 471.5460867938882,
      "perigee_km": 467.9977743024365,
      "latitude_deg": 3.12740005464468e-05,
      "longitude_deg": -121.3906848298514,
      "height_km": 474.619894102181,
      "semi_major_axis_km": 6847.908930548162,
      "eccentricity": 0.00025908,
      "inclination_deg": 97.3811,
      "raan_deg": 172.1571,
      "arg_perigee_deg": 191.3422,
      "mean_anomaly_deg": 168.7762,
      "mean_motion_rev_day": 15.32024808
    },
    {
      "epoch": "2026-04-07T13:56:58.150176Z",
      "apogee_km": 471.44108181942283,
      "perigee_km": 467.8306620504236,
      "latitude_deg": 5.488645648597308e-05,
      "longitude_deg": 128.36082775464808,
      "height_km": 474.5313235331871,
      "semi_major_axis_km": 6847.772871934923,
      "eccentricity": 0.00026362,
      "inclination_deg": 97.3809,
      "raan_deg": 173.4592,
      "arg_perigee_deg": 188.1192,
      "mean_anomaly_deg": 172.0008,
      "mean_motion_rev_day": 15.32070468
    },
    {
      "epoch": "2026-04-07T20:13:10.428384Z",
      "apogee_km": 471.4311076595859,
      "perigee_km": 467.80179832949943,
      "latitude_deg": -6.330460299314019e-05,
      "longitude_deg": 34.31258009018906,
      "height_km": 474.5240261471124,
      "semi_major_axis_km": 6847.753452994542,
      "eccentricity": 0.000265,
      "inclination_deg": 97.3808,
      "raan_deg": 173.7196,
      "arg_perigee_deg": 187.4716,
      "mean_anomaly_deg": 172.6486,
      "mean_motion_rev_day": 15.32076985
    },
    {
      "epoch": "2026-04-08T15:01:46.361856Z",
      "apogee_km": 471.409986414792,
      "perigee_km": 467.66759464175266,
      "latitude_deg": 2.5938626980470114e-05,
      "longitude_deg": 112.17154490673501,
      "height_km": 474.5093891918239,
      "semi_major_axis_km": 6847.675790528272,
      "eccentricity": 0.00027326,
      "inclination_deg": 97.3808,
      "raan_deg": 174.5008,
      "arg_perigee_deg": 185.5738,
      "mean_anomaly_deg": 174.5474,
      "mean_motion_rev_day": 15.32103049
    },
    {
      "epoch": "2026-04-09T20:48:41.014368Z",
      "apogee_km": 471.38029103438566,
      "perigee_km": 467.4511652789688,
      "latitude_deg": 3.901748342237537e-05,
      "longitude_deg": 25.457923712245094,
      "height_km": 474.4875154095268,
      "semi_major_axis_km": 6847.5527281566765,
      "eccentricity": 0.0002869,
      "inclination_deg": 97.3808,
      "raan_deg": 175.738,
      "arg_perigee_deg": 181.6729,
      "mean_anomaly_deg": 178.4504,
      "mean_motion_rev_day": 15.32144351
    },
    {
      "epoch": "2026-04-10T06:12:57.649248Z",
      "apogee_km": 471.34858619135593,
      "perigee_km": 467.39702523267624,
      "latitude_deg": -1.1713118806710783e-05,
      "longitude_deg": -115.6071168089843,
      "height_km": 474.45654017139856,
      "semi_major_axis_km": 6847.509805712016,
      "eccentricity": 0.00028854,
      "inclination_deg": 97.3808,
      "raan_deg": 176.1285,
      "arg_perigee_deg": 180.3642,
      "mean_anomaly_deg": 179.7598,
      "mean_motion_rev_day": 15.32158757
    },
    {
      "epoch": "2026-04-11T21:24:04.322016Z",
      "apogee_km": 471.28826777612176,
      "perigee_km": 467.1812142058752,
      "latitude_deg": -4.083818149606831e-05,
      "longitude_deg": 16.633202145538082,
      "height_km": 474.3917591025841,
      "semi_major_axis_km": 6847.371740990999,
      "eccentricity": 0.0002999,
      "inclination_deg": 97.3809,
      "raan_deg": 177.7559,
      "arg_perigee_deg": 176.306,
      "mean_anomaly_deg": 183.8204,
      "mean_motion_rev_day": 15.32205097
    },
    {
      "epoch": "2026-04-13T06:18:57.348864Z",
      "apogee_km": 471.2894134122316,
      "perigee_km": 467.0060259829779,
      "latitude_deg": 3.2839683273345396e-05,
      "longitude_deg": -117.07231298462418,
      "height_km": 474.3788970196001,
      "semi_major_axis_km": 6847.2847196976045,
      "eccentricity": 0.00031278,
      "inclination_deg": 97.3811,
      "raan_deg": 179.1231,
      "arg_perigee_deg": 172.5679,
      "mean_anomaly_deg": 187.561,
      "mean_motion_rev_day": 15.32234306
    }
  ]
}